Satellite: The_Sun
Catalog number: 0
Epoch time: 99861.000000
Element set: 1
Inclination: 23.440600 deg
RA of node: 0.000000 deg
Eccentricity: 0.016713
Arg of perigee: 282.768500 deg
Mean anomaly: 17.332700 deg
Mean motion:  0.002737778522 rev/day
Decay rate: 0.000000e+00 rev/day^2
Epoch rev: 26
Semi major axis:  149597870 km
